0 CZ-4C DEB
1 38297U 10059G   13280.86319682  .00000141  00000-0  15336-3 0  1349
2 38297 098.6969 148.0037 0244175 218.5714 199.6256 13.74596616141857
0 CZ-4C DEB
1 38297U 10059G   13283.42452898  .00000154  00000-0  16460-3 0  1355
2 38297 098.6966 150.3408 0244240 211.7015 274.5250 13.74598253142211
0 CZ-4C DEB
1 38297U 10059G   13285.46229405  .00000180  00000-0  18602-3 0  1367
2 38297 098.6962 152.2001 0244319 206.2393 278.5298 13.74598757142497
0 CZ-4C DEB
1 38297U 10059G   13287.85113547  .00000281  00000-0  27161-3 0  1374
2 38297 098.6957 154.3797 0244406 199.8354 219.8619 13.74600279142822
0 CZ-4C DEB
1 38297U 10059G   13289.88887970  .00000232  00000-0  22984-3 0  1382
2 38297 098.6953 156.2390 0244494 194.3737 223.7788 13.74601532143094
0 CZ-4C DEB
1 38297U 10059G   13292.44990920  .00000249  00000-0  24424-3 0  1398
2 38297 098.6950 158.5754 0244601 187.5137 297.2172 13.74602898143457
0 CZ-4C DEB
1 38297U 10059G   13294.48722346  .00000235  00000-0  23211-3 0  1409
2 38297 098.6949 160.4339 0244690 182.0578 299.0200 13.74604421143730
